{
    "bodies": [
        {
            "name": "TNO-374",
            "mass": 0,
            "semi_major_axis": 277.83203125,
            "eccentricity": 0.03652343749999999,
            "inclination": 0.1593635596303416,
            "longitude_of_ascending_node": 1.7994375632798085,
            "argument_of_perihelion": 0.36510582731444197,
            "mean_anomaly": 5.304895400148529
        },
        {
            "name": "TNO-375",
            "mass": 0,
            "semi_major_axis": 278.173828125,
            "eccentricity": 0.03662109374999999,
            "inclination": 0.15978966540475428,
            "longitude_of_ascending_node": 5.971939812650244,
            "argument_of_perihelion": 0.5499361286376294,
            "mean_anomaly": 0.7020685377866948
        },
        {
            "name": "TNO-376",
            "mass": 0,
            "semi_major_axis": 278.515625,
            "eccentricity": 0.036718749999999994,
            "inclination": 0.16021577117916697,
            "longitude_of_ascending_node": 2.2452015862620582,
            "argument_of_perihelion": 0.7241961190097862,
            "mean_anomaly": 0.6326843561075703
        },
        {
            "name": "TNO-377",
            "mass": 0,
            "semi_major_axis": 278.857421875,
            "eccentricity": 0.03681640624999999,
            "inclination": 0.16064187695357965,
            "longitude_of_ascending_node": 3.772641722952825,
            "argument_of_perihelion": 4.394587948572914,
            "mean_anomaly": 3.8932184375035632
        },
        {
            "name": "TNO-378",
            "mass": 0,
            "semi_major_axis": 279.19921875,
            "eccentricity": 0.03691406249999999,
            "inclination": 0.16106798272799233,
            "longitude_of_ascending_node": 4.47635802972727,
            "argument_of_perihelion": 0.36899384198971813,
            "mean_anomaly": 1.8407727208615803
        },
        {
            "name": "TNO-379",
            "mass": 0,
            "semi_major_axis": 279.541015625,
            "eccentricity": 0.03701171874999999,
            "inclination": 0.16149408850240501,
            "longitude_of_ascending_node": 3.207661638283963,
            "argument_of_perihelion": 3.6363504397641933,
            "mean_anomaly": 4.9636731051415754
        },
        {
            "name": "TNO-380",
            "mass": 0,
            "semi_major_axis": 279.8828125,
            "eccentricity": 0.03710937499999999,
            "inclination": 0.16192019427681767,
            "longitude_of_ascending_node": 1.9257635174926324,
            "argument_of_perihelion": 4.806968660086452,
            "mean_anomaly": 2.5412333563818836
        },
        {
            "name": "TNO-381",
            "mass": 0,
            "semi_major_axis": 280.224609375,
            "eccentricity": 0.037207031249999994,
            "inclination": 0.16234630005123035,
            "longitude_of_ascending_node": 4.467564016513685,
            "argument_of_perihelion": 1.9889385647987319,
            "mean_anomaly": 2.9644932478108394
        },
        {
            "name": "TNO-382",
            "mass": 0,
            "semi_major_axis": 280.56640625,
            "eccentricity": 0.03730468749999999,
            "inclination": 0.16277240582564304,
            "longitude_of_ascending_node": 0.15042511980212464,
            "argument_of_perihelion": 5.0317915078375,
            "mean_anomaly": 1.6217222197344638
        },
        {
            "name": "TNO-383",
            "mass": 0,
            "semi_major_axis": 280.908203125,
            "eccentricity": 0.03740234374999999,
            "inclination": 0.16319851160005572,
            "longitude_of_ascending_node": 1.1722875463814573,
            "argument_of_perihelion": 6.248559341365923,
            "mean_anomaly": 3.005252708573953
        },
        {
            "name": "TNO-384",
            "mass": 0,
            "semi_major_axis": 281.25,
            "eccentricity": 0.03749999999999999,
            "inclination": 0.1636246173744684,
            "longitude_of_ascending_node": 4.92842405275967,
            "argument_of_perihelion": 4.81588378737982,
            "mean_anomaly": 0.18132878224837232
        },
        {
            "name": "TNO-385",
            "mass": 0,
            "semi_major_axis": 281.591796875,
            "eccentricity": 0.03759765624999999,
            "inclination": 0.16405072314888108,
            "longitude_of_ascending_node": 1.476546280557709,
            "argument_of_perihelion": 3.784995044565972,
            "mean_anomaly": 4.001327438954814
        },
        {
            "name": "TNO-386",
            "mass": 0,
            "semi_major_axis": 281.93359375,
            "eccentricity": 0.037695312499999994,
            "inclination": 0.16447682892329374,
            "longitude_of_ascending_node": 3.499567940114466,
            "argument_of_perihelion": 0.1784577436417963,
            "mean_anomaly": 2.0688583152767284
        },
        {
            "name": "TNO-387",
            "mass": 0,
            "semi_major_axis": 282.275390625,
            "eccentricity": 0.03779296874999999,
            "inclination": 0.16490293469770642,
            "longitude_of_ascending_node": 4.620303820729024,
            "argument_of_perihelion": 0.5806314971803594,
            "mean_anomaly": 1.1170739348213334
        },
        {
            "name": "TNO-388",
            "mass": 0,
            "semi_major_axis": 282.6171875,
            "eccentricity": 0.03789062499999999,
            "inclination": 0.1653290404721191,
            "longitude_of_ascending_node": 0.1685056374309799,
            "argument_of_perihelion": 4.703179064347231,
            "mean_anomaly": 1.5899072550928397
        },
        {
            "name": "TNO-389",
            "mass": 0,
            "semi_major_axis": 282.958984375,
            "eccentricity": 0.03798828124999999,
            "inclination": 0.1657551462465318,
            "longitude_of_ascending_node": 6.102295878117027,
            "argument_of_perihelion": 1.4311676316635298,
            "mean_anomaly": 2.00077085310226
        },
        {
            "name": "TNO-390",
            "mass": 0,
            "semi_major_axis": 283.30078125,
            "eccentricity": 0.03808593749999999,
            "inclination": 0.16618125202094447,
            "longitude_of_ascending_node": 5.934273322703284,
            "argument_of_perihelion": 1.9108265739632841,
            "mean_anomaly": 1.6895913763736492
        },
        {
            "name": "TNO-391",
            "mass": 0,
            "semi_major_axis": 283.642578125,
            "eccentricity": 0.038183593749999994,
            "inclination": 0.16660735779535715,
            "longitude_of_ascending_node": 4.934143426270764,
            "argument_of_perihelion": 5.1342725637745055,
            "mean_anomaly": 3.8218493265845774
        },
        {
            "name": "TNO-392",
            "mass": 0,
            "semi_major_axis": 283.984375,
            "eccentricity": 0.03828124999999999,
            "inclination": 0.1670334635697698,
            "longitude_of_ascending_node": 4.14993047209795,
            "argument_of_perihelion": 3.9816880075538306,
            "mean_anomaly": 5.413778822789285
        },
        {
            "name": "TNO-393",
            "mass": 0,
            "semi_major_axis": 284.326171875,
            "eccentricity": 0.03837890624999999,
            "inclination": 0.1674595693441825,
            "longitude_of_ascending_node": 5.22930524354437,
            "argument_of_perihelion": 4.407193041277755,
            "mean_anomaly": 0.8216668552824115
        },
        {
            "name": "TNO-394",
            "mass": 0,
            "semi_major_axis": 284.66796875,
            "eccentricity": 0.03847656249999999,
            "inclination": 0.16788567511859517,
            "longitude_of_ascending_node": 0.1589207252979458,
            "argument_of_perihelion": 1.8161089958997623,
            "mean_anomaly": 0.3613284900353881
        },
        {
            "name": "TNO-395",
            "mass": 0,
            "semi_major_axis": 285.009765625,
            "eccentricity": 0.03857421874999999,
            "inclination": 0.16831178089300786,
            "longitude_of_ascending_node": 2.907521800561745,
            "argument_of_perihelion": 3.3877444460166957,
            "mean_anomaly": 3.0039523025081434
        },
        {
            "name": "TNO-396",
            "mass": 0,
            "semi_major_axis": 285.3515625,
            "eccentricity": 0.038671874999999994,
            "inclination": 0.16873788666742054,
            "longitude_of_ascending_node": 2.7095690844535336,
            "argument_of_perihelion": 3.5642156262826594,
            "mean_anomaly": 1.7833290338570902
        },
        {
            "name": "TNO-397",
            "mass": 0,
            "semi_major_axis": 285.693359375,
            "eccentricity": 0.03876953124999999,
            "inclination": 0.16916399244183322,
            "longitude_of_ascending_node": 5.096431430836269,
            "argument_of_perihelion": 1.8646976680729224,
            "mean_anomaly": 2.08571167129549
        },
        {
            "name": "TNO-398",
            "mass": 0,
            "semi_major_axis": 286.03515625,
            "eccentricity": 0.03886718749999999,
            "inclination": 0.16959009821624588,
            "longitude_of_ascending_node": 3.7477571378234456,
            "argument_of_perihelion": 0.41945037316078915,
            "mean_anomaly": 2.693865498692725
        },
        {
            "name": "TNO-399",
            "mass": 0,
            "semi_major_axis": 286.376953125,
            "eccentricity": 0.03896484374999999,
            "inclination": 0.17001620399065856,
            "longitude_of_ascending_node": 1.8739734886779922,
            "argument_of_perihelion": 2.01667566815132,
            "mean_anomaly": 6.251137960354014
        }
    ]
}